[
    {
        "Altitude(m)": 566566.6662475967,
        "Argument of Periapsis(deg)": -0.007534386927657468,
        "Eccentricity": 0.0,
        "Inclination(deg)": 97.0,
        "Latitude(deg)": 25.193140001307807,
        "Longitude(deg)": -127.46795467461554,
        "Mean Anomaly(deg)": 154.64264775639583,
        "RAAN(deg)": 150.00198235120618,
        "Satellite Name": "Starlink Shell 3 1897",
        "Satellite Number": 1897,
        "Semi-Major Axis(m)": 6938478.169268562,
        "Time(s)": 190
    },
    {
        "Altitude(m)": 566489.8085834882,
        "Argument of Periapsis(deg)": -0.007930933608060494,
        "Eccentricity": 0.0,
        "Inclination(deg)": 97.0,
        "Latitude(deg)": 24.570592273287538,
        "Longitude(deg)": -127.60215678209718,
        "Mean Anomaly(deg)": 155.26812395410087,
        "RAAN(deg)": 150.00208668548018,
        "Satellite Name": "Starlink Shell 3 1897",
        "Satellite Number": 1897,
        "Semi-Major Axis(m)": 6938478.169268562,
        "Time(s)": 200
    },
    {
        "Altitude(m)": 566416.1106503443,
        "Argument of Periapsis(deg)": -0.008327480288463517,
        "Eccentricity": 0.0,
        "Inclination(deg)": 97.0,
        "Latitude(deg)": 23.94793653872908,
        "Longitude(deg)": -127.7354514860573,
        "Mean Anomaly(deg)": 155.8936001518059,
        "RAAN(deg)": 150.0021910197542,
        "Satellite Name": "Starlink Shell 3 1897",
        "Satellite Number": 1897,
        "Semi-Major Axis(m)": 6938478.169268562,
        "Time(s)": 210
    },
    {
        "Altitude(m)": 566345.6346446457,
        "Argument of Periapsis(deg)": -0.008724026968866542,
        "Eccentricity": 0.0,
        "Inclination(deg)": 97.0,
        "Latitude(deg)": 23.32517621201436,
        "Longitude(deg)": -127.86787329471306,
        "Mean Anomaly(deg)": 156.51907634951095,
        "RAAN(deg)": 150.0022953540282,
        "Satellite Name": "Starlink Shell 3 1897",
        "Satellite Number": 1897,
        "Semi-Major Axis(m)": 6938478.169268562,
        "Time(s)": 220
    },
    {
        "Altitude(m)": 566278.4413502259,
        "Argument of Periapsis(deg)": -0.009120573649269567,
        "Eccentricity": 0.0,
        "Inclination(deg)": 97.0,
        "Latitude(deg)": 22.702314673089102,
        "Longitude(deg)": -127.99945566954376,
        "Mean Anomaly(deg)": 157.144552547216,
        "RAAN(deg)": 150.0023996883022,
        "Satellite Name": "Starlink Shell 3 1897",
        "Satellite Number": 1897,
        "Semi-Major Axis(m)": 6938478.169268562,
        "Time(s)": 230
    },
    {
        "Altitude(m)": 566214.59010476,
        "Argument of Periapsis(deg)": -0.009517120329672592,
        "Eccentricity": 0.0,
        "Inclination(deg)": 97.0,
        "Latitude(deg)": 22.079355270104514,
        "Longitude(deg)": -128.1302305736631,
        "Mean Anomaly(deg)": 157.77002874492106,
        "RAAN(deg)": 150.0025040225762,
        "Satellite Name": "Starlink Shell 3 1897",
        "Satellite Number": 1897,
        "Semi-Major Axis(m)": 6938478.169268562,
        "Time(s)": 240
    },
    {
        "Altitude(m)": 566154.1387669275,
        "Argument of Periapsis(deg)": -0.009913667010075618,
        "Eccentricity": 0.0,
        "Inclination(deg)": 97.0,
        "Latitude(deg)": 21.456301321878996,
        "Longitude(deg)": -128.26022953042948,
        "Mean Anomaly(deg)": 158.3955049426261,
        "RAAN(deg)": 150.00260835685023,
        "Satellite Name": "Starlink Shell 3 1897",
        "Satellite Number": 1897,
        "Semi-Major Axis(m)": 6938478.169268562,
        "Time(s)": 250
    },
    {
        "Altitude(m)": 566097.1436843071,
        "Argument of Periapsis(deg)": -0.010310213690478642,
        "Eccentricity": 0.0,
        "Inclination(deg)": 97.0,
        "Latitude(deg)": 20.83315612018913,
        "Longitude(deg)": -128.3894831667183,
        "Mean Anomaly(deg)": 159.02098114033114,
        "RAAN(deg)": 150.00271269112426,
        "Satellite Name": "Starlink Shell 3 1897",
        "Satellite Number": 1897,
        "Semi-Major Axis(m)": 6938478.169268562,
        "Time(s)": 260
    },
    {
        "Altitude(m)": 566043.6596619313,
        "Argument of Periapsis(deg)": -0.010706760370881667,
        "Eccentricity": 0.0,
        "Inclination(deg)": 97.0,
        "Latitude(deg)": 20.209922931899623,
        "Longitude(deg)": -128.51802075388684,
        "Mean Anomaly(deg)": 159.64645733803619,
        "RAAN(deg)": 150.00281702539826,
        "Satellite Name": "Starlink Shell 3 1897",
        "Satellite Number": 1897,
        "Semi-Major Axis(m)": 6938478.169268562,
        "Time(s)": 270
    },
    {
        "Altitude(m)": 565993.7399316521,
        "Argument of Periapsis(deg)": -0.011103307051284692,
        "Eccentricity": 0.0,
        "Inclination(deg)": 97.0,
        "Latitude(deg)": 19.586605000945774,
        "Longitude(deg)": -128.64587125945135,
        "Mean Anomaly(deg)": 160.27193353574123,
        "RAAN(deg)": 150.00292135967229,
        "Satellite Name": "Starlink Shell 3 1897",
        "Satellite Number": 1897,
        "Semi-Major Axis(m)": 6938478.169268562,
        "Time(s)": 280
    },
    {
        "Altitude(m)": 565947.4361222002,
        "Argument of Periapsis(deg)": -0.011499853731687715,
        "Eccentricity": 0.0,
        "Inclination(deg)": 97.0,
        "Latitude(deg)": 18.963205550172265,
        "Longitude(deg)": -128.7730628838684,
        "Mean Anomaly(deg)": 160.8974097334463,
        "RAAN(deg)": 150.00302569394628,
        "Satellite Name": "Starlink Shell 3 1897",
        "Satellite Number": 1897,
        "Semi-Major Axis(m)": 6938478.169268562,
        "Time(s)": 290
    },
    {
        "Altitude(m)": 565904.7982300398,
        "Argument of Periapsis(deg)": -0.011896400412090741,
        "Eccentricity": 0.0,
        "Inclination(deg)": 97.0,
        "Latitude(deg)": 18.33972778303936,
        "Longitude(deg)": -128.89962259542193,
        "Mean Anomaly(deg)": 161.5228859311513,
        "RAAN(deg)": 150.00313002822026,
        "Satellite Name": "Starlink Shell 3 1897",
        "Satellite Number": 1897,
        "Semi-Major Axis(m)": 6938478.169268562,
        "Time(s)": 300
    },
    {
        "Altitude(m)": 565865.8745910217,
        "Argument of Periapsis(deg)": -0.012292947092493765,
        "Eccentricity": 0.0,
        "Inclination(deg)": 97.0,
        "Latitude(deg)": 17.716174885206033,
        "Longitude(deg)": -129.0255771762086,
        "Mean Anomaly(deg)": 162.14836212885635,
        "RAAN(deg)": 150.00323436249428,
        "Satellite Name": "Starlink Shell 3 1897",
        "Satellite Number": 1897,
        "Semi-Major Axis(m)": 6938478.169268562,
        "Time(s)": 310
    },
    {
        "Altitude(m)": 565830.7118528202,
        "Argument of Periapsis(deg)": -0.012689493772896788,
        "Eccentricity": 0.0,
        "Inclination(deg)": 97.0,
        "Latitude(deg)": 17.09255002599309,
        "Longitude(deg)": -129.15095275358914,
        "Mean Anomaly(deg)": 162.7738383265614,
        "RAAN(deg)": 150.0033386967683,
        "Satellite Name": "Starlink Shell 3 1897",
        "Satellite Number": 1897,
        "Semi-Major Axis(m)": 6938478.169268562,
        "Time(s)": 320
    },
    {
        "Altitude(m)": 565799.3549482113,
        "Argument of Periapsis(deg)": -0.013086040453299813,
        "Eccentricity": 0.0,
        "Inclination(deg)": 97.0,
        "Latitude(deg)": 16.46885635973653,
        "Longitude(deg)": -129.27577433008295,
        "Mean Anomaly(deg)": 163.3993145242664,
        "RAAN(deg)": 150.0034430310423,
        "Satellite Name": "Starlink Shell 3 1897",
        "Satellite Number": 1897,
        "Semi-Major Axis(m)": 6938478.169268562,
        "Time(s)": 330
    },
    {
        "Altitude(m)": 565771.8470691731,
        "Argument of Periapsis(deg)": -0.01348258713370284,
        "Eccentricity": 0.0,
        "Inclination(deg)": 97.0,
        "Latitude(deg)": 15.845097027038003,
        "Longitude(deg)": -129.4000668246788,
        "Mean Anomaly(deg)": 164.0247907219715,
        "RAAN(deg)": 150.0035473653163,
        "Satellite Name": "Starlink Shell 3 1897",
        "Satellite Number": 1897,
        "Semi-Major Axis(m)": 6938478.169268562,
        "Time(s)": 340
    },
    {
        "Altitude(m)": 565748.229641849,
        "Argument of Periapsis(deg)": -0.013879133814105863,
        "Eccentricity": 0.0,
        "Inclination(deg)": 97.0,
        "Latitude(deg)": 15.22127515591639,
        "Longitude(deg)": -129.52385459990805,
        "Mean Anomaly(deg)": 164.65026691967654,
        "RAAN(deg)": 150.0036516995903,
        "Satellite Name": "Starlink Shell 3 1897",
        "Satellite Number": 1897,
        "Semi-Major Axis(m)": 6938478.169268562,
        "Time(s)": 350
    },
    {
        "Altitude(m)": 565728.5423023697,
        "Argument of Periapsis(deg)": -0.01427568049450889,
        "Eccentricity": 0.0,
        "Inclination(deg)": 97.0,
        "Latitude(deg)": 14.597393862866415,
        "Longitude(deg)": -129.6471609876417,
        "Mean Anomaly(deg)": 165.27574311738158,
        "RAAN(deg)": 150.00375603386433,
        "Satellite Name": "Starlink Shell 3 1897",
        "Satellite Number": 1897,
        "Semi-Major Axis(m)": 6938478.169268562,
        "Time(s)": 360
    },
    {
        "Altitude(m)": 565712.8228735732,
        "Argument of Periapsis(deg)": -0.014672227174911913,
        "Eccentricity": 0.0,
        "Inclination(deg)": 97.0,
        "Latitude(deg)": 13.973456253833788,
        "Longitude(deg)": -129.7700093265652,
        "Mean Anomaly(deg)": 165.90121931508662,
        "RAAN(deg)": 150.00386036813833,
        "Satellite Name": "Starlink Shell 3 1897",
        "Satellite Number": 1897,
        "Semi-Major Axis(m)": 6938478.169268562,
        "Time(s)": 370
    }
]